INTELSAT 36             
1 41747C 16053A   22027.00000000  .00000066  00000-0  00000-0 0   275
2 41747   0.0122  27.4370 0000795 345.1293 182.1567  1.00270850    15
INTELSAT 36         [PM]
1 41747C 16053A   22028.76487269  .00000066  00000-0  00000-0 0   286
2 41747   0.0136  16.3866 0000882 343.7667 111.6615  1.00271882    10
INTELSAT 33E            
1 41748C 16053B   22024.00000000  .00000139  00000-0  00000-0 0   241
2 41748   0.0405 314.0551 0001419 346.2218 243.0077  1.00272485    18
INTELSAT 33E            
1 41748C 16053B   22027.00000000  .00000139  00000-0  00000-0 0   277
2 41748   0.0326 342.9560 0001375 326.9403 236.3370  1.00270302    19
INTELSAT 33E        [PM]
1 41748C 16053B   22030.28193287  .00000139  00000-0  00000-0 0   305
2 41748   0.0357 332.4458 0001185 338.7702 339.7311  1.00270370    13
INTELSAT 32E            
1 41945C 17007B   22024.00000000 -.00000183  00000-0  00000-0 0   240
2 41945   0.0001  73.2339 0000313 355.3314  11.5582  1.00269859    17
INTELSAT 32E        [PM]
1 41945C 17007B   22025.96743056 -.00000214  00000-0  00000-0 0   257
2 41945   0.0049  49.1698 0000597  39.8737 341.2697  1.00273752    13
INTELSAT 32E            
1 41945C 17007B   22027.00000000 -.00000179  00000-0  00000-0 0   271
2 41945   0.0106  78.2528 0000554   3.9680   0.8352  1.00269561    13
INTELSAT 35E            
1 42818C 17041A   22024.00000000 -.00000139  00000-0  00000-0 0   249
2 42818   0.0439 251.8047 0001912  72.4102 124.5641  1.00269532    19
INTELSAT 35E            
1 42818C 17041A   22027.00000000 -.00000145  00000-0  00000-0 0   272
2 42818   0.0433 240.6389 0001626  81.5677 129.5183  1.00273334    19
INTELSAT 35E        [PM]
1 42818C 17041A   22030.05519676 -.00000246  00000-0  00000-0 0   301
2 42818   0.0114 256.0289 0001628  72.7605 145.8262  1.00272031    12
INTELSAT 37E            
1 42950C 17059A   22024.00000000 -.00000063  00000-0  00000-0 0   241
2 42950   0.0151 317.8092 0002569 346.9294 160.5466  1.00271852    13
INTELSAT 37E            
1 42950C 17059A   22027.00000000 -.00000046  00000-0  00000-0 0   278
2 42950   0.0000  44.5245 0002331 264.6565 159.0568  1.00271868    17
INTELSAT 37E        [PM]
1 42950C 17059A   22030.50277778 -.00000168  00000-0  00000-0 0   304
2 42950   0.0417 249.5288 0002193  60.4736 342.6792  1.00269685    14
AZERSPACE 2             
1 43632C 18074A   22024.00000000  .00000224  00000-0  00000-0 0   245
2 43632   0.0000  84.2214 0001348 231.5555 212.6234  1.00270129    16
AZERSPACE 2             
1 43632C 18074A   22027.00000000  .00000227  00000-0  00000-0 0   274
2 43632   0.0096  79.6836 0001154 245.2621 206.4003  1.00271472    17
HORIZONS 3E             
1 43633C 18074B   22024.00000000  .00000069  00000-0  00000-0 0   243
2 43633   0.0173 186.8440 0000577 102.4019   3.0439  1.00271760    13
HORIZONS 3E             
1 43633C 18074B   22027.00000000  .00000059  00000-0  00000-0 0   278
2 43633   0.0063 330.5976 0000532 348.0233 336.6344  1.00270271    16
INTELSAT 39             
1 44476C 19049B   22024.00000000  .00000125  00000-0  00000-0 0   245
2 44476   0.0000  98.3450 0001064  40.8457  46.0404  1.00271190    15
INTELSAT 39         [PM]
1 44476C 19049B   22026.38087963  .00000124  00000-0  00000-0 0   262
2 44476   0.0048  16.4012 0001131 108.0214 200.2654  1.00272099    15
INTELSAT 39             
1 44476C 19049B   22027.00000000  .00000124  00000-0  00000-0 0   270
2 44476   0.0024  58.0483 0001263  80.3347  49.7967  1.00270747    19
GALAXY 30               
1 46114C 20056C   22024.00000000  .00000127  00000-0  00000-0 0   248
2 46114   0.0001  74.5084 0001859 239.1829  44.5977  1.00271081    11
GALAXY 30               
1 46114C 20056C   22027.00000000  .00000044  00000-0  00000-0 0   272
2 46114   0.0004  21.2163 0001742 303.9322  36.0873  1.00270776    11
GALAXY 30           [PM]
1 46114C 20056C   22030.59027778  .00000130  00000-0  00000-0 0   301
2 46114   0.0042  90.3638 0001642 232.7437 254.1690  1.00269374    14
